{
  "norad_id": 59641,
  "name": "STARLINK-31804",
  "history": [
    {
      "epoch": "2026-03-28T13:49:23.852928Z",
      "apogee_km": 484.06576196675087,
      "perigee_km": 482.1665670908096,
      "latitude_deg": -5.243051062727462e-06,
      "longitude_deg": -0.4787310400263297,
      "height_km": 482.88879047472454,
      "semi_major_axis_km": 6861.25316452878,
      "eccentricity": 0.0001384,
      "inclination_deg": 43.0052,
      "raan_deg": 32.8651,
      "arg_perigee_deg": 270.2803,
      "mean_anomaly_deg": 89.789,
      "mean_motion_rev_day": 15.27557602
    },
    {
      "epoch": "2026-03-29T02:22:38.460000Z",
      "apogee_km": 484.14122826892526,
      "perigee_km": 481.94702254501954,
      "latitude_deg": 1.020312706965118e-05,
      "longitude_deg": 167.74014569256377,
      "height_km": 482.7466915282085,
      "semi_major_axis_km": 6861.181125406972,
      "eccentricity": 0.0001599,
      "inclination_deg": 43.0047,
      "raan_deg": 29.9104,
      "arg_perigee_deg": 273.9109,
      "mean_anomaly_deg": 86.156,
      "mean_motion_rev_day": 15.2758166
    },
    {
      "epoch": "2026-03-29T05:30:57.247200Z",
      "apogee_km": 484.217212174819,
      "perigee_km": 481.7801367832435,
      "latitude_deg": 4.256442270567466e-05,
      "longitude_deg": 119.79500451095113,
      "height_km": 482.8268877824847,
      "semi_major_axis_km": 6861.135674479031,
      "eccentricity": 0.0001776,
      "inclination_deg": 43.0068,
      "raan_deg": 29.1724,
      "arg_perigee_deg": 267.6264,
      "mean_anomaly_deg": 92.4385,
      "mean_motion_rev_day": 15.27596839
    },
    {
      "epoch": "2026-03-30T12:54:05.559840Z",
      "apogee_km": 484.0255997571494,
      "perigee_km": 482.05054190126157,
      "latitude_deg": 1.0911186048864975e-05,
      "longitude_deg": 0.33497324459783484,
      "height_km": 482.85244490298004,
      "semi_major_axis_km": 6861.175070829206,
      "eccentricity": 0.00014393,
      "inclination_deg": 43.0032,
      "raan_deg": 21.786,
      "arg_perigee_deg": 267.8359,
      "mean_anomaly_deg": 92.2328,
      "mean_motion_rev_day": 15.27583682
    },
    {
      "epoch": "2026-03-30T20:44:53.101536Z",
      "apogee_km": 484.0433961746621,
      "perigee_km": 482.1271940120878,
      "latitude_deg": 1.8495367461316043e-05,
      "longitude_deg": -119.53315461110164,
      "height_km": 483.1798137814694,
      "semi_major_axis_km": 6861.222295093375,
      "eccentricity": 0.00013964,
      "inclination_deg": 43.0028,
      "raan_deg": 19.9382,
      "arg_perigee_deg": 250.6396,
      "mean_anomaly_deg": 109.4305,
      "mean_motion_rev_day": 15.27567911
    },
    {
      "epoch": "2026-03-31T12:26:27.822048Z",
      "apogee_km": 483.8837203213534,
      "perigee_km": 482.31441840756816,
      "latitude_deg": 7.923419519428179e-06,
      "longitude_deg": 0.7377784973058533,
      "height_km": 482.92605340672014,
      "semi_major_axis_km": 6861.2360693644605,
      "eccentricity": 0.00011436,
      "inclination_deg": 43.0041,
      "raan_deg": 16.2483,
      "arg_perigee_deg": 266.3428,
      "mean_anomaly_deg": 93.7293,
      "mean_motion_rev_day": 15.27563311
    },
    {
      "epoch": "2026-04-01T11:58:49.063008Z",
      "apogee_km": 483.7377254612238,
      "perigee_km": 482.4327209943658,
      "latitude_deg": 4.972593205286538e-05,
      "longitude_deg": 1.1440983878805522,
      "height_km": 482.79400766158295,
      "semi_major_axis_km": 6861.2222232277945,
      "eccentricity": 9.51e-05,
      "inclination_deg": 43.005,
      "raan_deg": 10.7098,
      "arg_perigee_deg": 275.9898,
      "mean_anomaly_deg": 84.0846,
      "mean_motion_rev_day": 15.27567935
    },
    {
      "epoch": "2026-04-02T11:31:08.835168Z",
      "apogee_km": 483.87487974916075,
      "perigee_km": 482.1715281169336,
      "latitude_deg": 5.677133026706588e-06,
      "longitude_deg": 1.555563156030244,
      "height_km": 482.67727532571763,
      "semi_major_axis_km": 6861.160203933047,
      "eccentricity": 0.00012413,
      "inclination_deg": 43.0057,
      "raan_deg": 5.1704,
      "arg_perigee_deg": 278.3131,
      "mean_anomaly_deg": 81.758,
      "mean_motion_rev_day": 15.27588647
    },
    {
      "epoch": "2026-04-03T11:03:31.002336Z",
      "apogee_km": 483.6449048000313,
      "perigee_km": 482.69145783203567,
      "latitude_deg": 3.5873780690509716e-05,
      "longitude_deg": 1.9562999375617738,
      "height_km": 482.53336866298395,
      "semi_major_axis_km": 6861.305181316033,
      "eccentricity": 6.948e-05,
      "inclination_deg": 43.009,
      "raan_deg": 359.6302,
      "arg_perigee_deg": 329.707,
      "mean_anomaly_deg": 30.3742,
      "mean_motion_rev_day": 15.27540231
    },
    {
      "epoch": "2026-04-04T10:35:51.209088Z",
      "apogee_km": 483.3206847834754,
      "perigee_km": 482.68259888978446,
      "latitude_deg": -2.467131547801608e-05,
      "longitude_deg": 2.36622995425946,
      "height_km": 482.48082053445717,
      "semi_major_axis_km": 6861.138641836629,
      "eccentricity": 4.65e-05,
      "inclination_deg": 43.0082,
      "raan_deg": 354.0911,
      "arg_perigee_deg": 338.753,
      "mean_anomaly_deg": 21.3302,
      "mean_motion_rev_day": 15.27595848
    },
    {
      "epoch": "2026-04-05T10:08:11.336352Z",
      "apogee_km": 484.29794432689414,
      "perigee_km": 481.7755024192338,
      "latitude_deg": -2.8984195833745825e-05,
      "longitude_deg": 2.7770512005412993,
      "height_km": 482.9553385899839,
      "semi_major_axis_km": 6861.173723373064,
      "eccentricity": 0.00018382,
      "inclination_deg": 43.0079,
      "raan_deg": 348.5525,
      "arg_perigee_deg": 263.5944,
      "mean_anomaly_deg": 96.4698,
      "mean_motion_rev_day": 15.27584132
    },
    {
      "epoch": "2026-04-06T01:49:44.800608Z",
      "apogee_km": 484.0940663321344,
      "perigee_km": 481.9734156795039,
      "latitude_deg": 1.7702860449181623e-06,
      "longitude_deg": 123.04807499464795,
      "height_km": 483.2281496519472,
      "semi_major_axis_km": 6861.170741005819,
      "eccentricity": 0.00015454,
      "inclination_deg": 43.0078,
      "raan_deg": 344.8574,
      "arg_perigee_deg": 246.8486,
      "mean_anomaly_deg": 113.2203,
      "mean_motion_rev_day": 15.27585128
    },
    {
      "epoch": "2026-04-07T09:12:53.294688Z",
      "apogee_km": 483.81669139422684,
      "perigee_km": 482.2962509210174,
      "latitude_deg": -3.833885569008433e-05,
      "longitude_deg": 3.594572203579486,
      "height_km": 482.47486674227173,
      "semi_major_axis_km": 6861.193471157621,
      "eccentricity": 0.0001108,
      "inclination_deg": 43.0017,
      "raan_deg": 337.4783,
      "arg_perigee_deg": 298.1099,
      "mean_anomaly_deg": 61.964,
      "mean_motion_rev_day": 15.27577537
    },
    {
      "epoch": "2026-04-08T00:54:27.540000Z",
      "apogee_km": 483.7871542983121,
      "perigee_km": 482.3360107981034,
      "latitude_deg": -1.7607922521463256e-06,
      "longitude_deg": 123.86483820529557,
      "height_km": 482.5277196733962,
      "semi_major_axis_km": 6861.198582548208,
      "eccentricity": 0.00010575,
      "inclination_deg": 43.0016,
      "raan_deg": 333.7857,
      "arg_perigee_deg": 295.3286,
      "mean_anomaly_deg": 64.7456,
      "mean_motion_rev_day": 15.2757583
    },
    {
      "epoch": "2026-04-09T08:17:35.822400Z",
      "apogee_km": 483.40762843815264,
      "perigee_km": 482.7342694900408,
      "latitude_deg": 4.071875842117683e-05,
      "longitude_deg": 4.404607345168098,
      "height_km": 482.54418047221054,
      "semi_major_axis_km": 6861.207948964096,
      "eccentricity": 4.907e-05,
      "inclination_deg": 42.9991,
      "raan_deg": 326.3989,
      "arg_perigee_deg": 26.2766,
      "mean_anomaly_deg": 333.8111,
      "mean_motion_rev_day": 15.27572702
    },
    {
      "epoch": "2026-04-09T23:59:08.571264Z",
      "apogee_km": 483.66692341781345,
      "perigee_km": 482.4087211789001,
      "latitude_deg": 2.7357233546704998e-05,
      "longitude_deg": 124.68007237927893,
      "height_km": 482.7263152766074,
      "semi_major_axis_km": 6861.174822298356,
      "eccentricity": 9.169e-05,
      "inclination_deg": 43.0034,
      "raan_deg": 322.7053,
      "arg_perigee_deg": 278.0569,
      "mean_anomaly_deg": 82.0179,
      "mean_motion_rev_day": 15.27583765
    },
    {
      "epoch": "2026-04-11T07:22:16.614336Z",
      "apogee_km": 483.75756799905594,
      "perigee_km": 482.3565121760694,
      "latitude_deg": -2.312519171580721e-05,
      "longitude_deg": 5.222743425633341,
      "height_km": 482.7135281103075,
      "semi_major_axis_km": 6861.194040087562,
      "eccentricity": 0.0001021,
      "inclination_deg": 43.002,
      "raan_deg": 315.3205,
      "arg_perigee_deg": 279.8733,
      "mean_anomaly_deg": 80.2003,
      "mean_motion_rev_day": 15.27577347
    },
    {
      "epoch": "2026-04-12T14:45:24.377472Z",
      "apogee_km": 483.81179524716845,
      "perigee_km": 482.3238743666907,
      "latitude_deg": 6.678246742345016e-06,
      "longitude_deg": -114.23512884817714,
      "height_km": 482.77477584529436,
      "semi_major_axis_km": 6861.204834806929,
      "eccentricity": 0.00010843,
      "inclination_deg": 43.0018,
      "raan_deg": 307.9339,
      "arg_perigee_deg": 275.3757,
      "mean_anomaly_deg": 84.6971,
      "mean_motion_rev_day": 15.27573742
    },
    {
      "epoch": "2026-04-14T20:06:43.299360Z",
      "apogee_km": 484.04889053918487,
      "perigee_km": 482.06326126301883,
      "latitude_deg": 1.2120017174514995e-05,
      "longitude_deg": 150.68821490604432,
      "height_km": 482.82767201295536,
      "semi_major_axis_km": 6861.193075901101,
      "eccentricity": 0.0001447,
      "inclination_deg": 43.0026,
      "raan_deg": 295.3773,
      "arg_perigee_deg": 270.3136,
      "mean_anomaly_deg": 89.755,
      "mean_motion_rev_day": 15.27577669
    }
  ]
}